CCSDS_OMM_VERS = 2.0
CREATION_DATE  = 
ORIGINATOR     = 

OBJECT_NAME    = UNKNOWN
OBJECT_ID      = 
CENTER_NAME    = EARTH
REF_FRAME      = TEME
TIME_SYSTEM    = UTC
MEAN_ELEMENT_THEORY = SGP/SGP4

EPOCH          = 2026-03-17T10:15:07.131168
MEAN_MOTION    = 13.75282620
ECCENTRICITY   = .0026889
INCLINATION    = 99.2461
RA_OF_ASC_NODE = 300.4448
ARG_OF_PERICENTER = 5.2422
MEAN_ANOMALY   = 118.1978

EPHEMERIS_TYPE = 0
CLASSIFICATION_TYPE = U
NORAD_CAT_ID   = 85010
ELEMENT_SET_NO = 999
REV_AT_EPOCH   = 61693
BSTAR          = .10655E-2
MEAN_MOTION_DOT = .982E-5
MEAN_MOTION_DDOT = 0

CCSDS_OMM_VERS = 2.0
CREATION_DATE  = 
ORIGINATOR     = 

OBJECT_NAME    = UNKNOWN
OBJECT_ID      = 
CENTER_NAME    = EARTH
REF_FRAME      = TEME
TIME_SYSTEM    = UTC
MEAN_ELEMENT_THEORY = SGP/SGP4

EPOCH          = 2026-03-18T01:38:44.741760
MEAN_MOTION    = 14.62427582
ECCENTRICITY   = .0013907
INCLINATION    = 74.0484
RA_OF_ASC_NODE = 215.7556
ARG_OF_PERICENTER = 98.0256
MEAN_ANOMALY   = 262.2490

EPHEMERIS_TYPE = 0
CLASSIFICATION_TYPE = U
NORAD_CAT_ID   = 85015
ELEMENT_SET_NO = 999
REV_AT_EPOCH   = 65654
BSTAR          = .10645E-3
MEAN_MOTION_DOT = .509E-5
MEAN_MOTION_DDOT = 0

CCSDS_OMM_VERS = 2.0
CREATION_DATE  = 
ORIGINATOR     = 

OBJECT_NAME    = UNKNOWN
OBJECT_ID      = 
CENTER_NAME    = EARTH
REF_FRAME      = TEME
TIME_SYSTEM    = UTC
MEAN_ELEMENT_THEORY = SGP/SGP4

EPOCH          = 2026-03-15T14:38:43.744128
MEAN_MOTION    = 14.80577542
ECCENTRICITY   = .0001778
INCLINATION    = 99.8412
RA_OF_ASC_NODE = 115.4694
ARG_OF_PERICENTER = 113.4391
MEAN_ANOMALY   = 40.6120

EPHEMERIS_TYPE = 0
CLASSIFICATION_TYPE = U
NORAD_CAT_ID   = 85023
ELEMENT_SET_NO = 999
REV_AT_EPOCH   = 64254
BSTAR          = .2884E-2
MEAN_MOTION_DOT = .22117E-3
MEAN_MOTION_DDOT = 0

CCSDS_OMM_VERS = 2.0
CREATION_DATE  = 
ORIGINATOR     = 

OBJECT_NAME    = UNKNOWN
OBJECT_ID      = 
CENTER_NAME    = EARTH
REF_FRAME      = TEME
TIME_SYSTEM    = UTC
MEAN_ELEMENT_THEORY = SGP/SGP4

EPOCH          = 2026-03-18T03:10:25.879872
MEAN_MOTION    = 13.74289872
ECCENTRICITY   = .0169629
INCLINATION    = 66.0402
RA_OF_ASC_NODE = 227.9076
ARG_OF_PERICENTER = 139.2494
MEAN_ANOMALY   = 222.1404

EPHEMERIS_TYPE = 0
CLASSIFICATION_TYPE = U
NORAD_CAT_ID   = 85027
ELEMENT_SET_NO = 999
REV_AT_EPOCH   = 61772
BSTAR          = .20487E-3
MEAN_MOTION_DOT = .136E-5
MEAN_MOTION_DDOT = 0

CCSDS_OMM_VERS = 2.0
CREATION_DATE  = 
ORIGINATOR     = 

OBJECT_NAME    = UNKNOWN
OBJECT_ID      = 
CENTER_NAME    = EARTH
REF_FRAME      = TEME
TIME_SYSTEM    = UTC
MEAN_ELEMENT_THEORY = SGP/SGP4

EPOCH          = 2026-03-17T17:33:18.320256
MEAN_MOTION    = 13.46866864
ECCENTRICITY   = .0112075
INCLINATION    = 102.1731
RA_OF_ASC_NODE = 67.1162
ARG_OF_PERICENTER = 162.1352
MEAN_ANOMALY   = 198.3760

EPHEMERIS_TYPE = 0
CLASSIFICATION_TYPE = U
NORAD_CAT_ID   = 85047
ELEMENT_SET_NO = 999
REV_AT_EPOCH   = 58943
BSTAR          = .14171E-1
MEAN_MOTION_DOT = .8866E-4
MEAN_MOTION_DDOT = 0

CCSDS_OMM_VERS = 2.0
CREATION_DATE  = 
ORIGINATOR     = 

OBJECT_NAME    = UNKNOWN
OBJECT_ID      = 
CENTER_NAME    = EARTH
REF_FRAME      = TEME
TIME_SYSTEM    = UTC
MEAN_ELEMENT_THEORY = SGP/SGP4

EPOCH          = 2026-03-18T06:36:09.584352
MEAN_MOTION    = 12.77756756
ECCENTRICITY   = .0270473
INCLINATION    = 102.4013
RA_OF_ASC_NODE = 74.8586
ARG_OF_PERICENTER = 4.4916
MEAN_ANOMALY   = 8.5955

EPHEMERIS_TYPE = 0
CLASSIFICATION_TYPE = U
NORAD_CAT_ID   = 85061
ELEMENT_SET_NO = 999
REV_AT_EPOCH   = 56798
BSTAR          = .12667E-1
MEAN_MOTION_DOT = .3204E-4
MEAN_MOTION_DDOT = 0

CCSDS_OMM_VERS = 2.0
CREATION_DATE  = 
ORIGINATOR     = 

OBJECT_NAME    = UNKNOWN
OBJECT_ID      = 
CENTER_NAME    = EARTH
REF_FRAME      = TEME
TIME_SYSTEM    = UTC
MEAN_ELEMENT_THEORY = SGP/SGP4

EPOCH          = 2026-03-15T04:51:44.015328
MEAN_MOTION    = 14.40801053
ECCENTRICITY   = .0013827
INCLINATION    = 74.0448
RA_OF_ASC_NODE = 51.8296
ARG_OF_PERICENTER = 258.0101
MEAN_ANOMALY   = 119.7572

EPHEMERIS_TYPE = 0
CLASSIFICATION_TYPE = U
NORAD_CAT_ID   = 85100
ELEMENT_SET_NO = 999
REV_AT_EPOCH   = 64666
BSTAR          = .13556E-3
MEAN_MOTION_DOT = .408E-5
MEAN_MOTION_DDOT = 0

CCSDS_OMM_VERS = 2.0
CREATION_DATE  = 
ORIGINATOR     = 

OBJECT_NAME    = UNKNOWN
OBJECT_ID      = 
CENTER_NAME    = EARTH
REF_FRAME      = TEME
TIME_SYSTEM    = UTC
MEAN_ELEMENT_THEORY = SGP/SGP4

EPOCH          = 2026-03-16T05:00:16.058880
MEAN_MOTION    = 13.73041739
ECCENTRICITY   = .0010893
INCLINATION    = 100.0526
RA_OF_ASC_NODE = 185.6638
ARG_OF_PERICENTER = 134.2635
MEAN_ANOMALY   = 341.2998

EPHEMERIS_TYPE = 0
CLASSIFICATION_TYPE = U
NORAD_CAT_ID   = 85106
ELEMENT_SET_NO = 999
REV_AT_EPOCH   = 61589
BSTAR          = .75596E-3
MEAN_MOTION_DOT = .65E-5
MEAN_MOTION_DDOT = 0

CCSDS_OMM_VERS = 2.0
CREATION_DATE  = 
ORIGINATOR     = 

OBJECT_NAME    = UNKNOWN
OBJECT_ID      = 
CENTER_NAME    = EARTH
REF_FRAME      = TEME
TIME_SYSTEM    = UTC
MEAN_ELEMENT_THEORY = SGP/SGP4

EPOCH          = 2026-03-14T14:10:32.948832
MEAN_MOTION    = 14.83395407
ECCENTRICITY   = .0006341
INCLINATION    = 98.4000
RA_OF_ASC_NODE = 306.9940
ARG_OF_PERICENTER = 203.1632
MEAN_ANOMALY   = 156.9295

EPHEMERIS_TYPE = 0
CLASSIFICATION_TYPE = U
NORAD_CAT_ID   = 85151
ELEMENT_SET_NO = 999
REV_AT_EPOCH   = 49312
BSTAR          = .41617E-2
MEAN_MOTION_DOT = .34258E-3
MEAN_MOTION_DDOT = 0

CCSDS_OMM_VERS = 2.0
CREATION_DATE  = 
ORIGINATOR     = 

OBJECT_NAME    = UNKNOWN
OBJECT_ID      = 
CENTER_NAME    = EARTH
REF_FRAME      = TEME
TIME_SYSTEM    = UTC
MEAN_ELEMENT_THEORY = SGP/SGP4

EPOCH          = 2026-03-12T05:34:34.170816
MEAN_MOTION    = 13.71673445
ECCENTRICITY   = .0216482
INCLINATION    = 99.8618
RA_OF_ASC_NODE = 219.6907
ARG_OF_PERICENTER = 85.7625
MEAN_ANOMALY   = 34.8749

EPHEMERIS_TYPE = 0
CLASSIFICATION_TYPE = U
NORAD_CAT_ID   = 85210
ELEMENT_SET_NO = 999
REV_AT_EPOCH   = 61442
BSTAR          = .34895E-3
MEAN_MOTION_DOT = .327E-5
MEAN_MOTION_DDOT = 0

CCSDS_OMM_VERS = 2.0
CREATION_DATE  = 
ORIGINATOR     = 

OBJECT_NAME    = UNKNOWN
OBJECT_ID      = 
CENTER_NAME    = EARTH
REF_FRAME      = TEME
TIME_SYSTEM    = UTC
MEAN_ELEMENT_THEORY = SGP/SGP4

EPOCH          = 2026-03-16T16:41:38.740992
MEAN_MOTION    = 14.37696970
ECCENTRICITY   = .0206781
INCLINATION    = 98.0225
RA_OF_ASC_NODE = 168.9534
ARG_OF_PERICENTER = 203.9504
MEAN_ANOMALY   = 155.1960

EPHEMERIS_TYPE = 0
CLASSIFICATION_TYPE = U
NORAD_CAT_ID   = 85217
ELEMENT_SET_NO = 999
REV_AT_EPOCH   = 64135
BSTAR          = .69543E-3
MEAN_MOTION_DOT = .2631E-4
MEAN_MOTION_DDOT = 0

CCSDS_OMM_VERS = 2.0
CREATION_DATE  = 
ORIGINATOR     = 

OBJECT_NAME    = UNKNOWN
OBJECT_ID      = 
CENTER_NAME    = EARTH
REF_FRAME      = TEME
TIME_SYSTEM    = UTC
MEAN_ELEMENT_THEORY = SGP/SGP4

EPOCH          = 2026-03-16T09:30:51.787872
MEAN_MOTION    = 14.02336975
ECCENTRICITY   = .0516155
INCLINATION    = 65.5347
RA_OF_ASC_NODE = 328.8804
ARG_OF_PERICENTER = 344.9747
MEAN_ANOMALY   = 13.6465

EPHEMERIS_TYPE = 0
CLASSIFICATION_TYPE = U
NORAD_CAT_ID   = 85237
ELEMENT_SET_NO = 999
REV_AT_EPOCH   = 62147
BSTAR          = .12305E-2
MEAN_MOTION_DOT = .6156E-4
MEAN_MOTION_DDOT = 0

CCSDS_OMM_VERS = 2.0
CREATION_DATE  = 
ORIGINATOR     = 

OBJECT_NAME    = UNKNOWN
OBJECT_ID      = 
CENTER_NAME    = EARTH
REF_FRAME      = TEME
TIME_SYSTEM    = UTC
MEAN_ELEMENT_THEORY = SGP/SGP4

EPOCH          = 2026-03-18T02:17:23.462880
MEAN_MOTION    = 13.88362333
ECCENTRICITY   = .0062568
INCLINATION    = 99.0690
RA_OF_ASC_NODE = 8.5842
ARG_OF_PERICENTER = 303.4531
MEAN_ANOMALY   = 71.7122

EPHEMERIS_TYPE = 0
CLASSIFICATION_TYPE = U
NORAD_CAT_ID   = 85238
ELEMENT_SET_NO = 999
REV_AT_EPOCH   = 62407
BSTAR          = .63118E-4
MEAN_MOTION_DOT = .33E-6
MEAN_MOTION_DDOT = 0

CCSDS_OMM_VERS = 2.0
CREATION_DATE  = 
ORIGINATOR     = 

OBJECT_NAME    = UNKNOWN
OBJECT_ID      = 
CENTER_NAME    = EARTH
REF_FRAME      = TEME
TIME_SYSTEM    = UTC
MEAN_ELEMENT_THEORY = SGP/SGP4

EPOCH          = 2026-03-17T05:09:34.996896
MEAN_MOTION    = 14.21824120
ECCENTRICITY   = .0223088
INCLINATION    = 97.9907
RA_OF_ASC_NODE = 75.8765
ARG_OF_PERICENTER = 25.6240
MEAN_ANOMALY   = 335.5797

EPHEMERIS_TYPE = 0
CLASSIFICATION_TYPE = U
NORAD_CAT_ID   = 85246
ELEMENT_SET_NO = 999
REV_AT_EPOCH   = 63649
BSTAR          = .64394E-3
MEAN_MOTION_DOT = .1786E-4
MEAN_MOTION_DDOT = 0

CCSDS_OMM_VERS = 2.0
CREATION_DATE  = 
ORIGINATOR     = 

OBJECT_NAME    = UNKNOWN
OBJECT_ID      = 
CENTER_NAME    = EARTH
REF_FRAME      = TEME
TIME_SYSTEM    = UTC
MEAN_ELEMENT_THEORY = SGP/SGP4

EPOCH          = 2026-03-18T08:57:50.179680
MEAN_MOTION    = 14.00474907
ECCENTRICITY   = .0050078
INCLINATION    = 100.4232
RA_OF_ASC_NODE = 131.7145
ARG_OF_PERICENTER = 347.3302
MEAN_ANOMALY   = 74.1653

EPHEMERIS_TYPE = 0
CLASSIFICATION_TYPE = U
NORAD_CAT_ID   = 85373
ELEMENT_SET_NO = 999
REV_AT_EPOCH   = 62551
BSTAR          = .14886E-2
MEAN_MOTION_DOT = .2178E-4
MEAN_MOTION_DDOT = 0

CCSDS_OMM_VERS = 2.0
CREATION_DATE  = 
ORIGINATOR     = 

OBJECT_NAME    = UNKNOWN
OBJECT_ID      = 
CENTER_NAME    = EARTH
REF_FRAME      = TEME
TIME_SYSTEM    = UTC
MEAN_ELEMENT_THEORY = SGP/SGP4

EPOCH          = 2026-03-17T00:50:01.000320
MEAN_MOTION    = 2.08647485
ECCENTRICITY   = .62675
INCLINATION    = 17.5300
RA_OF_ASC_NODE = 67.7700
ARG_OF_PERICENTER = 179.8600
MEAN_ANOMALY   = 180.6300

EPHEMERIS_TYPE = 0
CLASSIFICATION_TYPE = U
NORAD_CAT_ID   = 85423
ELEMENT_SET_NO = 999
REV_AT_EPOCH   = 1
BSTAR          = -.3E-5
MEAN_MOTION_DOT = -.129E-5
MEAN_MOTION_DDOT = 0

